{"type":"FeatureCollection","source":"geoBoundaries gbOpen BGD ADM2 (release 9469f09), BBS/OCHA ROAP, CC BY 3.0 IGO","features":[{"type":"Feature","properties":{"name":"Rangpur"},"geometry":{"type":"MultiPolygon","coordinates":[[[[89.28066,25.30135],[89.28252,25.30185],[89.28007,25.30304],[89.27063,25.30587],[89.26869,25.31094],[89.26577,25.31309],[89.26295,25.31279],[89.26001,25.31009],[89.25678,25.31079],[89.25718,25.31277],[89.26098,25.31447],[89.26202,25.31745],[89.26538,25.31868],[89.26495,25.32135],[89.2632,25.32319],[89.26064,25.32274],[89.25673,25.31642],[89.25474,25.31551],[89.24486,25.31874],[89.23782,25.31914],[89.23818,25.32169],[89.2357,25.3234],[89.23582,25.32602],[89.23913,25.32874],[89.2446,25.33005],[89.24604,25.33315],[89.24543,25.33415],[89.23522,25.33304],[89.23341,25.33674],[89.23095,25.33839],[89.22673,25.33043],[89.22127,25.33235],[89.22708,25.34404],[89.22864,25.34413],[89.23049,25.3471],[89.23107,25.34647],[89.23007,25.34453],[89.23442,25.34068],[89.23778,25.33973],[89.23939,25.34064],[89.23869,25.34243],[89.23452,25.34404],[89.23389,25.34538],[89.24109,25.348],[89.24617,25.35243],[89.24489,25.35301],[89.23955,25.34998],[89.23334,25.35249],[89.23211,25.35586],[89.23652,25.35658],[89.23774,25.35767],[89.23598,25.36099],[89.23606,25.36487],[89.23365,25.36656],[89.22991,25.366],[89.23177,25.36219],[89.23157,25.36075],[89.22538,25.35789],[89.22202,25.35861],[89.22252,25.35994],[89.22601,25.36245],[89.22543,25.36474],[89.21488,25.36558],[89.20969,25.36447],[89.20987,25.36559],[89.2065,25.36808],[89.21074,25.36812],[89.21101,25.36954],[89.21257,25.3704],[89.21216,25.37166],[89.21637,25.37448],[89.21709,25.37666],[89.21528,25.37875],[89.21532,25.38049],[89.21177,25.38133],[89.20661,25.38628],[89.20491,25.38869],[89.20523,25.39149],[89.2028,25.39215],[89.20205,25.3941],[89.20034,25.39437],[89.20076,25.39221],[89.20248,25.39081],[89.20171,25.38917],[89.20006,25.38876],[89.19303,25.39045],[89.18809,25.38646],[89.18418,25.3961],[89.1765,25.39793],[89.17635,25.40162],[89.17182,25.40522],[89.16927,25.40444],[89.16473,25.39992],[89.16262,25.40541],[89.16053,25.4052],[89.16017,25.40279],[89.15892,25.40204],[89.15177,25.40347],[89.1507,25.40509],[89.15222,25.40569],[89.15706,25.40333],[89.15816,25.40365],[89.15675,25.4082],[89.15404,25.41],[89.15076,25.40848],[89.14809,25.40839],[89.14462,25.41043],[89.13997,25.41068],[89.1377,25.41214],[89.13784,25.41412],[89.13885,25.41475],[89.14511,25.41163],[89.15114,25.41291],[89.15153,25.41472],[89.14866,25.41661],[89.15093,25.41983],[89.15037,25.42105],[89.15191,25.42469],[89.14833,25.43102],[89.14851,25.43395],[89.14277,25.43616],[89.13974,25.43629],[89.13797,25.4401],[89.13248,25.44103],[89.13296,25.44241],[89.13522,25.44339],[89.138,25.44689],[89.13409,25.44639],[89.12996,25.44821],[89.12955,25.44726],[89.13117,25.44583],[89.12994,25.44487],[89.12524,25.45173],[89.1226,25.44978],[89.12234,25.45177],[89.12059,25.45286],[89.11527,25.45353],[89.11589,25.45556],[89.12223,25.4581],[89.13034,25.45823],[89.12998,25.45988],[89.12502,25.46139],[89.12164,25.46052],[89.12341,25.4688],[89.12053,25.46771],[89.11899,25.46253],[89.11508,25.46136],[89.11485,25.46781],[89.11282,25.47049],[89.10633,25.47175],[89.10459,25.47443],[89.10582,25.47704],[89.10968,25.47871],[89.11168,25.48113],[89.11002,25.48435],[89.1049,25.48366],[89.10402,25.48441],[89.10824,25.48693],[89.10799,25.48793],[89.1048,25.48818],[89.10295,25.48965],[89.10314,25.49106],[89.10564,25.4906],[89.10234,25.49423],[89.10378,25.49559],[89.1039,25.49981],[89.10484,25.50005],[89.10661,25.4981],[89.10688,25.50121],[89.11005,25.50154],[89.11108,25.50287],[89.11067,25.50598],[89.10677,25.50653],[89.10693,25.50838],[89.10893,25.50764],[89.10926,25.50881],[89.11101,25.50904],[89.11302,25.50653],[89.11486,25.50616],[89.11394,25.50834],[89.11106,25.50991],[89.11016,25.51193],[89.10896,25.51171],[89.10705,25.50886],[89.10472,25.51177],[89.10493,25.51373],[89.11076,25.51386],[89.10388,25.51619],[89.10541,25.51948],[89.10186,25.52802],[89.10474,25.53196],[89.1048,25.53436],[89.10354,25.53587],[89.10016,25.53684],[89.10085,25.54336],[89.09735,25.54297],[89.09339,25.54534],[89.09499,25.55039],[89.0973,25.55065],[89.10012,25.55813],[89.10391,25.56389],[89.10444,25.56687],[89.10323,25.57023],[89.10227,25.57018],[89.10067,25.56732],[89.09837,25.56746],[89.0892,25.57209],[89.08114,25.5776],[89.07798,25.57735],[89.07857,25.58281],[89.07675,25.58434],[89.07274,25.58401],[89.06091,25.58834],[89.05944,25.58659],[89.05834,25.58856],[89.0566,25.58888],[89.05691,25.58611],[89.05593,25.58535],[89.05412,25.58682],[89.05143,25.5865],[89.05162,25.58472],[89.04887,25.58426],[89.04817,25.58213],[89.04641,25.58423],[89.04467,25.58377],[89.04558,25.58529],[89.04381,25.58769],[89.04654,25.59195],[89.0452,25.59207],[89.04572,25.59417],[89.04476,25.59807],[89.03844,25.60394],[89.03266,25.60268],[89.02904,25.60544],[89.02762,25.60543],[89.02573,25.60491],[89.02409,25.60295],[89.01583,25.60265],[89.01466,25.60778],[89.01325,25.60946],[89.01436,25.61112],[89.01401,25.61321],[89.0098,25.6143],[89.01231,25.61662],[89.01069,25.61872],[89.00973,25.61946],[89.00505,25.61751],[89.00441,25.61925],[89.00297,25.61985],[89.00259,25.61749],[88.99918,25.6198],[89.00017,25.62058],[89.00204,25.62021],[89.00208,25.62167],[89.00071,25.62191],[89.00095,25.62386],[88.99812,25.62505],[88.99829,25.6309],[89.00143,25.63259],[89.00322,25.63211],[89.00279,25.63398],[88.99951,25.63608],[89.00021,25.63737],[88.99869,25.63971],[88.99688,25.63962],[88.99643,25.64054],[88.99128,25.64218],[88.99493,25.64366],[88.99476,25.64633],[88.99345,25.6468],[88.99398,25.64767],[88.99622,25.64889],[89.00054,25.64861],[89.00165,25.64992],[89.0018,25.6519],[88.99817,25.6519],[88.9997,25.65251],[89.0,25.65361],[88.99755,25.65517],[88.99791,25.65815],[88.99578,25.65778],[88.99609,25.65946],[88.99092,25.66074],[88.98512,25.65916],[88.98108,25.65694],[88.97625,25.65802],[88.97343,25.66167],[88.97539,25.6634],[88.97813,25.66878],[88.97771,25.67054],[88.97463,25.6724],[88.96773,25.67226],[88.96553,25.6772],[88.96623,25.68067],[88.964,25.68331],[88.95927,25.68321],[88.95706,25.68117],[88.95675,25.67895],[88.95526,25.67846],[88.95215,25.67924],[88.95071,25.68165],[88.94338,25.68404],[88.94284,25.68276],[88.94104,25.68321],[88.93898,25.68567],[88.93925,25.68879],[88.93989,25.69061],[88.94202,25.69137],[88.93937,25.69382],[88.93867,25.69874],[88.93509,25.70146],[88.93402,25.7044],[88.93198,25.7062],[88.9313,25.70885],[88.93194,25.71069],[88.93038,25.71146],[88.93194,25.71542],[88.93091,25.72099],[88.93489,25.72279],[88.94146,25.7237],[88.94621,25.72695],[88.94608,25.73018],[88.94182,25.73122],[88.94072,25.7332],[88.9418,25.73655],[88.94543,25.74194],[88.9489,25.74263],[88.94906,25.74146],[88.94728,25.74064],[88.94838,25.7396],[88.95041,25.74121],[88.95087,25.73972],[88.95466,25.73975],[88.95347,25.74082],[88.9545,25.74156],[88.95178,25.74225],[88.95425,25.74279],[88.95344,25.75056],[88.95178,25.75053],[88.95083,25.75343],[88.94539,25.75258],[88.94385,25.75509],[88.94352,25.75856],[88.94383,25.7605],[88.94569,25.76142],[88.94305,25.76255],[88.94081,25.76191],[88.94045,25.76368],[88.94547,25.76414],[88.9461,25.76749],[88.9441,25.76791],[88.94552,25.77514],[88.9475,25.77302],[88.9483,25.77635],[88.94983,25.77806],[88.95714,25.77834],[88.95678,25.78014],[88.95927,25.78106],[88.95931,25.783],[88.96183,25.78433],[88.96129,25.78723],[88.95506,25.78822],[88.96009,25.79085],[88.96069,25.79206],[88.95823,25.79295],[88.95678,25.79517],[88.9567,25.79936],[88.95461,25.80256],[88.95231,25.8034],[88.95011,25.80108],[88.94709,25.80008],[88.94218,25.80222],[88.94507,25.80496],[88.94302,25.80647],[88.94786,25.80845],[88.94834,25.81],[88.95026,25.80973],[88.95202,25.81086],[88.95266,25.80989],[88.95434,25.81022],[88.95576,25.81318],[88.95698,25.81384],[88.95963,25.81309],[88.96529,25.81341],[88.96767,25.81212],[88.96893,25.81019],[88.9714,25.80995],[88.97191,25.80811],[88.97335,25.80728],[88.97616,25.80729],[88.97742,25.8082],[88.98572,25.8074],[88.9867,25.8081],[88.98663,25.81086],[88.98869,25.81107],[88.99034,25.81418],[88.9929,25.81382],[88.99698,25.81154],[89.00469,25.81234],[89.00508,25.81341],[89.00272,25.81425],[89.00199,25.81568],[89.00669,25.81401],[89.01373,25.81966],[89.01472,25.81705],[89.01869,25.81816],[89.02834,25.81762],[89.03272,25.81857],[89.03804,25.81566],[89.04333,25.81637],[89.04283,25.81258],[89.04526,25.81619],[89.04862,25.81858],[89.04868,25.82158],[89.05049,25.82221],[89.05097,25.82411],[89.05342,25.82541],[89.05571,25.82851],[89.05632,25.8278],[89.05659,25.83158],[89.06026,25.83179],[89.06201,25.8341],[89.07218,25.8337],[89.07804,25.83116],[89.08155,25.83151],[89.0827,25.8306],[89.08217,25.82854],[89.08288,25.82615],[89.08881,25.82844],[89.08908,25.82703],[89.0905,25.8268],[89.09127,25.82905],[89.0881,25.83273],[89.08897,25.83466],[89.08728,25.84588],[89.08901,25.8479],[89.0975,25.84957],[89.10049,25.85137],[89.1009,25.85228],[89.09614,25.85961],[89.09629,25.86192],[89.1011,25.86426],[89.10363,25.86747],[89.1024,25.87007],[89.10257,25.87522],[89.11491,25.88142],[89.11628,25.88612],[89.1144,25.88696],[89.11188,25.88652],[89.1109,25.88991],[89.10895,25.89191],[89.10748,25.89159],[89.10739,25.89449],[89.10555,25.89679],[89.10201,25.89867],[89.10013,25.89812],[89.10004,25.89688],[89.09925,25.89756],[89.09957,25.90217],[89.09823,25.9025],[89.09765,25.90537],[89.09927,25.9072],[89.10019,25.90664],[89.0999,25.90957],[89.10087,25.91075],[89.10285,25.91078],[89.10359,25.91299],[89.10297,25.91397],[89.10108,25.91416],[89.10031,25.91694],[89.10191,25.91852],[89.1037,25.92333],[89.10293,25.92702],[89.102,25.92758],[89.1008,25.92634],[89.10026,25.92822],[89.10221,25.93008],[89.10197,25.93081],[89.10325,25.93072],[89.10384,25.93545],[89.10211,25.93531],[89.10209,25.93376],[89.10048,25.9325],[89.09574,25.93586],[89.09434,25.93589],[89.09423,25.93672],[89.09585,25.93752],[89.09857,25.93663],[89.10205,25.93943],[89.10321,25.94345],[89.10273,25.94514],[89.10656,25.95012],[89.1064,25.95234],[89.10937,25.95802],[89.10761,25.96473],[89.11123,25.9669],[89.11746,25.96627],[89.12536,25.96052],[89.12752,25.96093],[89.13271,25.9644],[89.13515,25.96296],[89.14184,25.96417],[89.15325,25.95495],[89.15636,25.95358],[89.16461,25.953],[89.1727,25.95074],[89.17605,25.95295],[89.18034,25.95243],[89.19205,25.94261],[89.19672,25.94634],[89.20031,25.94571],[89.20216,25.94291],[89.20276,25.93938],[89.20476,25.93922],[89.20668,25.93584],[89.2108,25.93327],[89.21023,25.93071],[89.212,25.93003],[89.21166,25.92768],[89.21498,25.92472],[89.21764,25.92034],[89.22017,25.92003],[89.22128,25.92273],[89.22231,25.92302],[89.22336,25.91734],[89.23012,25.9116],[89.23464,25.90478],[89.2474,25.90083],[89.25217,25.89716],[89.25891,25.89754],[89.2613,25.89581],[89.26408,25.8904],[89.27222,25.89224],[89.27579,25.89626],[89.27931,25.89664],[89.28177,25.89624],[89.28512,25.89144],[89.29136,25.88998],[89.28914,25.88963],[89.2899,25.88566],[89.29278,25.88049],[89.29637,25.87588],[89.29765,25.87552],[89.29869,25.87639],[89.30054,25.87295],[89.30359,25.87121],[89.30547,25.86676],[89.30815,25.86474],[89.31302,25.86452],[89.31629,25.85794],[89.31981,25.85827],[89.32237,25.85694],[89.32787,25.85674],[89.32864,25.8546],[89.3348,25.85036],[89.33444,25.83751],[89.33878,25.83175],[89.34226,25.83238],[89.3475,25.82806],[89.34908,25.82532],[89.34823,25.82315],[89.34651,25.8226],[89.34751,25.82111],[89.35031,25.82205],[89.35314,25.82175],[89.36197,25.81688],[89.36355,25.81676],[89.36729,25.81862],[89.37061,25.81751],[89.37119,25.81027],[89.37568,25.80487],[89.38019,25.8017],[89.38397,25.80083],[89.38566,25.79811],[89.38844,25.79686],[89.40865,25.79585],[89.41128,25.79352],[89.4146,25.79271],[89.4164,25.79405],[89.41889,25.79225],[89.41966,25.7935],[89.42939,25.79518],[89.42946,25.7883],[89.43194,25.78895],[89.43618,25.78782],[89.43785,25.78845],[89.44286,25.78613],[89.44643,25.78697],[89.44697,25.78419],[89.45069,25.78791],[89.45523,25.78391],[89.45801,25.7867],[89.45937,25.78542],[89.45797,25.78357],[89.46126,25.78616],[89.46294,25.78617],[89.46697,25.77973],[89.46943,25.77944],[89.46922,25.77713],[89.47979,25.7627],[89.47867,25.7591],[89.48057,25.75335],[89.48219,25.75279],[89.48658,25.75441],[89.48714,25.75091],[89.49168,25.75007],[89.49342,25.75146],[89.49653,25.74795],[89.4991,25.7482],[89.50042,25.74589],[89.50083,25.74435],[89.49967,25.74418],[89.49827,25.73017],[89.48798,25.72941],[89.48495,25.7277],[89.48648,25.72268],[89.49197,25.71343],[89.49421,25.71267],[89.49707,25.7131],[89.50825,25.7173],[89.51523,25.70695],[89.51344,25.69944],[89.51464,25.6912],[89.51617,25.68663],[89.51961,25.68621],[89.5198,25.68413],[89.51915,25.67843],[89.51592,25.67224],[89.5149,25.66786],[89.51419,25.65978],[89.5144,25.65823],[89.51761,25.65998],[89.51923,25.65877],[89.51839,25.65294],[89.51924,25.64939],[89.51869,25.64416],[89.5263,25.65108],[89.52755,25.65104],[89.53,25.64864],[89.53084,25.64892],[89.53079,25.65499],[89.53236,25.65308],[89.53314,25.64979],[89.53589,25.64899],[89.53098,25.64545],[89.52732,25.63933],[89.52253,25.63395],[89.52008,25.62884],[89.52276,25.62534],[89.52186,25.62298],[89.51792,25.62276],[89.51397,25.61959],[89.5082,25.61822],[89.50339,25.61912],[89.4985,25.62333],[89.49707,25.62222],[89.50104,25.6146],[89.50305,25.61374],[89.5029,25.61154],[89.50068,25.61032],[89.49847,25.61183],[89.49757,25.6153],[89.49446,25.6147],[89.48962,25.6047],[89.48844,25.5999],[89.49051,25.59038],[89.49671,25.58745],[89.49825,25.58574],[89.494,25.58075],[89.49579,25.57865],[89.49406,25.57616],[89.48988,25.57617],[89.48953,25.57686],[89.48755,25.57587],[89.48559,25.57897],[89.48649,25.58103],[89.48448,25.58365],[89.4784,25.58778],[89.47739,25.59019],[89.47265,25.59252],[89.47355,25.5978],[89.47101,25.59872],[89.4698,25.59863],[89.4707,25.59752],[89.47015,25.59663],[89.46731,25.59773],[89.46428,25.59726],[89.46308,25.59434],[89.45995,25.59524],[89.45845,25.59149],[89.45447,25.59199],[89.45436,25.58967],[89.4488,25.59015],[89.44595,25.58564],[89.44408,25.58598],[89.4428,25.5844],[89.43769,25.5852],[89.43726,25.58806],[89.43621,25.58828],[89.43718,25.59075],[89.4355,25.59081],[89.43434,25.59201],[89.43308,25.59079],[89.43323,25.58802],[89.43228,25.58764],[89.42671,25.58868],[89.42037,25.58833],[89.41574,25.58948],[89.41288,25.58835],[89.41209,25.58319],[89.41303,25.57577],[89.40753,25.56951],[89.40838,25.56656],[89.40822,25.55956],[89.40919,25.5582],[89.40866,25.55302],[89.40462,25.55015],[89.40761,25.54944],[89.4117,25.55146],[89.41312,25.55093],[89.41329,25.54944],[89.41273,25.54857],[89.40493,25.54727],[89.40449,25.5443],[89.40589,25.54215],[89.40753,25.54164],[89.41098,25.54269],[89.41178,25.54161],[89.40568,25.53573],[89.40487,25.53596],[89.40525,25.5387],[89.4035,25.53893],[89.40258,25.53431],[89.40393,25.53265],[89.4056,25.53225],[89.41,25.53592],[89.41218,25.53628],[89.41695,25.5343],[89.41564,25.52973],[89.41837,25.52856],[89.42021,25.52923],[89.41962,25.53149],[89.42119,25.53376],[89.42578,25.53699],[89.42748,25.53724],[89.42827,25.53603],[89.42757,25.53218],[89.42853,25.53161],[89.43392,25.53317],[89.43537,25.53744],[89.43792,25.53846],[89.43971,25.5303],[89.43784,25.52712],[89.43945,25.52603],[89.4412,25.52829],[89.44322,25.52763],[89.44234,25.52553],[89.43517,25.52393],[89.43404,25.5205],[89.43667,25.51952],[89.44016,25.51999],[89.43975,25.51872],[89.44351,25.51843],[89.44447,25.52177],[89.45052,25.51765],[89.44165,25.51384],[89.43979,25.5121],[89.44127,25.50663],[89.44429,25.50396],[89.43996,25.50241],[89.43938,25.50112],[89.4421,25.48832],[89.4401,25.48672],[89.43628,25.48821],[89.43364,25.48714],[89.43261,25.48575],[89.43316,25.48374],[89.43226,25.47966],[89.43013,25.47424],[89.42562,25.4759],[89.42395,25.47369],[89.42329,25.47007],[89.41891,25.4685],[89.41835,25.46477],[89.41559,25.46451],[89.41518,25.46276],[89.40835,25.46695],[89.40808,25.46531],[89.40507,25.46291],[89.40127,25.46522],[89.39928,25.46456],[89.39728,25.45736],[89.39479,25.45333],[89.39274,25.44344],[89.39141,25.44184],[89.38408,25.44372],[89.38034,25.44375],[89.38065,25.43826],[89.37789,25.43219],[89.38114,25.42927],[89.38302,25.42954],[89.38359,25.42871],[89.38293,25.42586],[89.38114,25.4255],[89.38089,25.42397],[89.37796,25.42426],[89.37737,25.4201],[89.379,25.41981],[89.37978,25.42104],[89.38174,25.41848],[89.37747,25.41711],[89.37675,25.41376],[89.37836,25.40982],[89.37687,25.40984],[89.37537,25.4065],[89.36571,25.40286],[89.36535,25.40105],[89.36783,25.39828],[89.36477,25.39552],[89.3646,25.39007],[89.36036,25.38593],[89.35574,25.38503],[89.35322,25.38017],[89.3508,25.37878],[89.35496,25.37291],[89.34816,25.37031],[89.3447,25.37034],[89.34317,25.36687],[89.34384,25.36243],[89.34287,25.36172],[89.34273,25.35969],[89.34414,25.35816],[89.34512,25.35265],[89.34029,25.34237],[89.3402,25.33697],[89.34364,25.33617],[89.3451,25.33732],[89.34722,25.3365],[89.34631,25.32779],[89.34574,25.32694],[89.34423,25.32709],[89.33969,25.32902],[89.338,25.32717],[89.33377,25.32618],[89.33442,25.32381],[89.33258,25.32441],[89.33021,25.32193],[89.33401,25.31763],[89.3342,25.3151],[89.33639,25.31418],[89.33848,25.3142],[89.34122,25.31569],[89.34231,25.31789],[89.34196,25.31928],[89.34394,25.31976],[89.34385,25.31722],[89.34595,25.3143],[89.34496,25.31148],[89.34628,25.30983],[89.34571,25.30908],[89.3448,25.30952],[89.34341,25.30725],[89.34066,25.3067],[89.34064,25.30563],[89.34276,25.3043],[89.33928,25.30335],[89.33523,25.30361],[89.33474,25.30104],[89.33204,25.30108],[89.32893,25.30304],[89.32644,25.30046],[89.31835,25.30275],[89.31336,25.29942],[89.30387,25.30031],[89.29227,25.29924],[89.28985,25.3019],[89.28666,25.29973],[89.28066,25.30135]]]]}}]}