{"type":"FeatureCollection","source":"geoBoundaries gbOpen BGD ADM3 (release 9469f09), BBS/OCHA ROAP, CC BY 3.0 IGO","district":"Rangpur","features":[{"type":"Feature","properties":{"name":"Badarganj","id":"5055444B71688043167729"},"geometry":{"type":"MultiPolygon","coordinates":[[[[89.09094,25.7314],[89.0885,25.72986],[89.0877,25.72672],[89.08342,25.72566],[89.08496,25.71833],[89.08836,25.71428],[89.09329,25.71481],[89.09528,25.71808],[89.09729,25.71503],[89.09924,25.71501],[89.10052,25.71764],[89.10068,25.72196],[89.10395,25.72085],[89.10799,25.72107],[89.10829,25.72274],[89.11163,25.72304],[89.11116,25.72421],[89.10864,25.72417],[89.10996,25.72591],[89.11897,25.72418],[89.12341,25.72484],[89.12667,25.72303],[89.12992,25.7235],[89.13293,25.72206],[89.13322,25.71937],[89.13648,25.71958],[89.13826,25.7178],[89.13957,25.71824],[89.14,25.71952],[89.13816,25.72097],[89.14224,25.72398],[89.14233,25.72074],[89.14061,25.71767],[89.14175,25.71604],[89.14015,25.71415],[89.14334,25.71094],[89.14871,25.71022],[89.15024,25.70906],[89.15202,25.70282],[89.15131,25.69825],[89.14692,25.69778],[89.14638,25.6958],[89.14815,25.6936],[89.15408,25.69244],[89.15869,25.68995],[89.15711,25.68064],[89.15651,25.66637],[89.14359,25.6661],[89.14036,25.665],[89.13734,25.65653],[89.1396,25.65005],[89.13843,25.6493],[89.13671,25.65159],[89.13537,25.65121],[89.13388,25.64561],[89.13,25.6375],[89.13016,25.63068],[89.1329,25.62803],[89.13919,25.62626],[89.14369,25.62787],[89.14532,25.62595],[89.14313,25.62429],[89.14294,25.62237],[89.13989,25.61871],[89.13368,25.61293],[89.13551,25.60436],[89.14118,25.58926],[89.14205,25.58778],[89.1439,25.58707],[89.14601,25.5826],[89.14548,25.58192],[89.14258,25.58457],[89.14056,25.58505],[89.14102,25.58074],[89.14036,25.5788],[89.1428,25.57553],[89.1426,25.57449],[89.13922,25.57065],[89.13217,25.56874],[89.1314,25.56756],[89.12764,25.5666],[89.12724,25.5653],[89.12501,25.56418],[89.124,25.56201],[89.12137,25.56001],[89.11968,25.55311],[89.11662,25.55358],[89.11751,25.55244],[89.11494,25.55092],[89.11282,25.55217],[89.11173,25.55175],[89.10774,25.54023],[89.10519,25.54054],[89.10329,25.53912],[89.10329,25.53839],[89.10489,25.53804],[89.10492,25.5339],[89.10354,25.53587],[89.10016,25.53684],[89.10085,25.54336],[89.09735,25.54297],[89.09338,25.54563],[89.09499,25.55039],[89.0973,25.55065],[89.10012,25.55813],[89.10391,25.56389],[89.10444,25.56687],[89.10323,25.57023],[89.10227,25.57018],[89.10067,25.56732],[89.09837,25.56746],[89.0892,25.57209],[89.08114,25.5776],[89.07798,25.57735],[89.07857,25.58281],[89.07675,25.58434],[89.07274,25.58401],[89.06091,25.58834],[89.05944,25.58659],[89.05834,25.58856],[89.0566,25.58888],[89.05691,25.58611],[89.05593,25.58535],[89.05412,25.58682],[89.05143,25.5865],[89.05162,25.58472],[89.04897,25.58433],[89.04784,25.58224],[89.04641,25.58423],[89.04467,25.58377],[89.04558,25.58529],[89.04381,25.58769],[89.04654,25.59195],[89.0452,25.59207],[89.04544,25.5955],[89.0432,25.60024],[89.03844,25.60394],[89.03266,25.60268],[89.02935,25.60514],[89.02621,25.60518],[89.02409,25.60295],[89.01601,25.60251],[89.01466,25.60778],[89.01325,25.60946],[89.01436,25.61112],[89.01401,25.61321],[89.0098,25.6143],[89.01231,25.61662],[89.01069,25.61872],[89.00973,25.61946],[89.00505,25.61751],[89.00441,25.61925],[89.00297,25.61985],[89.00259,25.61749],[88.99918,25.6198],[89.00017,25.62058],[89.00204,25.62021],[89.00208,25.62167],[89.00071,25.62191],[89.00095,25.62386],[88.99812,25.62505],[88.99829,25.6309],[89.00143,25.63259],[89.00322,25.63211],[89.00297,25.63367],[88.99951,25.63608],[89.00021,25.63737],[88.99869,25.63971],[88.99688,25.63962],[88.99643,25.64054],[88.99128,25.64218],[88.99493,25.64366],[88.99476,25.64633],[88.99345,25.6468],[88.99398,25.64767],[88.99622,25.64889],[89.00054,25.64861],[89.00165,25.64992],[89.0018,25.6519],[88.99817,25.6519],[88.9997,25.65251],[89.0,25.65361],[88.99755,25.65517],[88.99791,25.65815],[88.99578,25.65778],[88.99609,25.65946],[88.99092,25.66074],[88.98512,25.65916],[88.98108,25.65694],[88.97625,25.65802],[88.97343,25.66167],[88.97539,25.6634],[88.97813,25.66878],[88.97771,25.67054],[88.97463,25.6724],[88.96773,25.67226],[88.96553,25.6772],[88.96637,25.68023],[88.9644,25.68305],[88.95972,25.68345],[88.95706,25.68117],[88.95675,25.67895],[88.95526,25.67846],[88.95215,25.67924],[88.95071,25.68165],[88.94338,25.68404],[88.94244,25.68277],[88.93935,25.68509],[88.93985,25.69054],[88.94202,25.69137],[88.93937,25.69382],[88.93867,25.69874],[88.93509,25.70146],[88.93402,25.7044],[88.93194,25.7063],[88.9313,25.70885],[88.93194,25.71069],[88.93032,25.71202],[88.93194,25.71542],[88.93085,25.72092],[88.93489,25.72279],[88.94146,25.7237],[88.94621,25.72695],[88.94608,25.73018],[88.94182,25.73122],[88.94072,25.7332],[88.9418,25.73655],[88.94602,25.74244],[88.94924,25.74232],[88.94888,25.74127],[88.94742,25.74108],[88.94838,25.7396],[88.95041,25.74121],[88.95066,25.7398],[88.95454,25.73952],[88.95347,25.74082],[88.9545,25.74156],[88.95249,25.74159],[88.95191,25.7425],[88.95525,25.74202],[88.9575,25.73924],[88.96107,25.73913],[88.96205,25.73749],[88.96605,25.73769],[88.96633,25.73901],[88.96449,25.74166],[88.96552,25.74192],[88.96504,25.74442],[88.96675,25.74687],[88.96531,25.74936],[88.96813,25.74971],[88.97465,25.75273],[88.97817,25.74958],[88.98232,25.75639],[88.9836,25.75538],[88.98769,25.75733],[88.9915,25.75106],[88.9926,25.74731],[89.00459,25.7477],[89.01062,25.74465],[89.01244,25.74048],[89.01032,25.73877],[89.01202,25.73784],[89.01159,25.73633],[89.01289,25.73457],[89.01666,25.73569],[89.02165,25.73427],[89.02129,25.73625],[89.01877,25.73664],[89.01752,25.73812],[89.01813,25.7395],[89.02074,25.74087],[89.02484,25.74154],[89.03402,25.74062],[89.03629,25.74202],[89.04386,25.73979],[89.04705,25.7315],[89.0487,25.72959],[89.054,25.7274],[89.06044,25.72653],[89.06142,25.72787],[89.05474,25.73626],[89.05491,25.73721],[89.06454,25.73596],[89.06544,25.7383],[89.06746,25.73853],[89.07177,25.73683],[89.06957,25.74052],[89.07204,25.7401],[89.07301,25.74208],[89.07595,25.74327],[89.08064,25.74155],[89.08419,25.7386],[89.08515,25.73637],[89.08681,25.73708],[89.08835,25.73204],[89.09094,25.7314]]]]}},{"type":"Feature","properties":{"name":"Gangachara","id":"5055444B51911213656614"},"geometry":{"type":"MultiPolygon","coordinates":[[[[89.29136,25.88998],[89.28914,25.88963],[89.2899,25.88566],[89.29278,25.88049],[89.29637,25.87588],[89.29765,25.87552],[89.29869,25.87639],[89.30054,25.87295],[89.30359,25.87121],[89.30547,25.86676],[89.30815,25.86474],[89.31302,25.86452],[89.31629,25.85794],[89.31981,25.85827],[89.32237,25.85694],[89.32787,25.85674],[89.32864,25.8546],[89.3348,25.85036],[89.33455,25.83726],[89.33878,25.83175],[89.34226,25.83238],[89.3468,25.82881],[89.34906,25.82554],[89.34833,25.82363],[89.34439,25.82489],[89.34196,25.82243],[89.33969,25.82542],[89.33846,25.82255],[89.3339,25.82547],[89.33376,25.82157],[89.33512,25.81967],[89.33026,25.81909],[89.3261,25.822],[89.32136,25.82218],[89.31919,25.82029],[89.31918,25.81584],[89.312,25.81548],[89.31086,25.81439],[89.31245,25.81262],[89.31146,25.81036],[89.30642,25.80769],[89.3051,25.80889],[89.30754,25.80908],[89.30741,25.81106],[89.30481,25.81046],[89.30242,25.81155],[89.30227,25.81259],[89.30416,25.81327],[89.30373,25.81577],[89.30127,25.81495],[89.30078,25.81715],[89.29909,25.81659],[89.29925,25.8191],[89.29839,25.82005],[89.29386,25.81976],[89.29137,25.81703],[89.2873,25.819],[89.28465,25.82336],[89.28073,25.82197],[89.28037,25.82328],[89.27589,25.81995],[89.27512,25.81748],[89.27264,25.81478],[89.27273,25.81681],[89.27145,25.81629],[89.27239,25.82016],[89.27083,25.81796],[89.26805,25.81893],[89.26775,25.81738],[89.26492,25.81656],[89.26611,25.81453],[89.26549,25.81351],[89.26375,25.81479],[89.26298,25.81289],[89.26124,25.81442],[89.25828,25.81477],[89.25751,25.81656],[89.25627,25.81649],[89.25405,25.81846],[89.25398,25.81914],[89.25518,25.81915],[89.25603,25.82211],[89.2554,25.82418],[89.2486,25.82576],[89.24581,25.82311],[89.23879,25.82039],[89.23465,25.81701],[89.22501,25.81929],[89.22437,25.82093],[89.2231,25.82125],[89.21889,25.81929],[89.21823,25.82126],[89.21706,25.82161],[89.20822,25.82113],[89.20536,25.82569],[89.20608,25.82656],[89.20955,25.82621],[89.20988,25.8288],[89.2062,25.82887],[89.20583,25.82942],[89.20707,25.82984],[89.20576,25.83144],[89.20764,25.83163],[89.20619,25.83425],[89.20479,25.83492],[89.2051,25.833],[89.20422,25.83215],[89.20375,25.83353],[89.20177,25.83324],[89.20221,25.83462],[89.20082,25.83476],[89.20106,25.83575],[89.20018,25.83615],[89.19988,25.83532],[89.19528,25.83507],[89.19544,25.83401],[89.19759,25.83341],[89.19767,25.83193],[89.19627,25.83305],[89.19641,25.83133],[89.1934,25.83013],[89.19158,25.83201],[89.19162,25.83064],[89.19306,25.82961],[89.18933,25.82832],[89.18991,25.82598],[89.19116,25.82522],[89.18931,25.82397],[89.18951,25.82183],[89.19205,25.82204],[89.19277,25.81905],[89.19442,25.8189],[89.195,25.81983],[89.19779,25.81869],[89.19658,25.81843],[89.19624,25.81731],[89.1922,25.81726],[89.19251,25.81394],[89.1911,25.81137],[89.19023,25.8117],[89.19046,25.81399],[89.18945,25.81529],[89.18848,25.81327],[89.18619,25.8149],[89.18726,25.8185],[89.18555,25.81831],[89.1854,25.81534],[89.18087,25.8119],[89.17889,25.8159],[89.17792,25.81599],[89.17905,25.81241],[89.17818,25.81148],[89.1777,25.81414],[89.17465,25.81491],[89.17763,25.81702],[89.1783,25.82068],[89.17715,25.82196],[89.17339,25.81971],[89.17348,25.819],[89.17612,25.81854],[89.17591,25.81734],[89.16831,25.81465],[89.16244,25.81662],[89.16042,25.81998],[89.15802,25.81916],[89.15775,25.81802],[89.15515,25.81785],[89.15387,25.81896],[89.1535,25.8174],[89.15561,25.81637],[89.15591,25.81366],[89.15449,25.81541],[89.14836,25.81456],[89.14704,25.81632],[89.14845,25.816],[89.14709,25.81933],[89.14334,25.81767],[89.1429,25.81582],[89.1425,25.81781],[89.14032,25.81799],[89.13974,25.81937],[89.13582,25.81677],[89.13553,25.81462],[89.13258,25.81319],[89.13225,25.80961],[89.12612,25.80882],[89.12716,25.80767],[89.12543,25.80772],[89.12294,25.80583],[89.12019,25.80687],[89.11826,25.80622],[89.11911,25.80527],[89.11781,25.80083],[89.1162,25.80081],[89.11598,25.80293],[89.11237,25.80403],[89.11234,25.80665],[89.11078,25.80747],[89.11023,25.80683],[89.1096,25.80923],[89.10607,25.80814],[89.10548,25.81333],[89.10625,25.81634],[89.10493,25.81871],[89.10408,25.81934],[89.10041,25.81751],[89.10048,25.82129],[89.10454,25.82026],[89.10487,25.82243],[89.10275,25.82179],[89.10086,25.82331],[89.10098,25.8247],[89.09194,25.82822],[89.0881,25.83273],[89.08897,25.83466],[89.0873,25.84326],[89.08765,25.84656],[89.08901,25.8479],[89.09815,25.84977],[89.10083,25.85195],[89.09598,25.86047],[89.09641,25.86209],[89.1011,25.86426],[89.10363,25.86747],[89.1024,25.87007],[89.10257,25.87522],[89.11491,25.88142],[89.11626,25.88597],[89.1144,25.88696],[89.11188,25.88652],[89.1109,25.88991],[89.10895,25.89191],[89.10748,25.89159],[89.10739,25.89449],[89.10555,25.89679],[89.10201,25.89867],[89.10013,25.89812],[89.10004,25.89688],[89.09925,25.89756],[89.09957,25.90217],[89.09823,25.9025],[89.09765,25.90537],[89.09927,25.9072],[89.10019,25.90664],[89.0999,25.90957],[89.10087,25.91075],[89.10285,25.91078],[89.10359,25.91299],[89.10297,25.91397],[89.10108,25.91416],[89.10031,25.91694],[89.10191,25.91852],[89.1037,25.92333],[89.10293,25.92702],[89.10176,25.92751],[89.1008,25.92634],[89.10023,25.928],[89.10197,25.93081],[89.10325,25.93072],[89.10308,25.93345],[89.10421,25.9347],[89.10351,25.93571],[89.10211,25.93531],[89.10209,25.93376],[89.10048,25.9325],[89.09423,25.93615],[89.09552,25.9375],[89.09902,25.9368],[89.10211,25.93954],[89.10321,25.94345],[89.10273,25.94514],[89.10656,25.95012],[89.1064,25.95234],[89.10937,25.95802],[89.10761,25.96473],[89.11061,25.96667],[89.11746,25.96627],[89.12536,25.96052],[89.12752,25.96093],[89.13271,25.9644],[89.13515,25.96296],[89.14184,25.96417],[89.15325,25.95495],[89.15636,25.95358],[89.16461,25.953],[89.1727,25.95074],[89.17605,25.95295],[89.18034,25.95243],[89.19205,25.94261],[89.19672,25.94634],[89.20045,25.94566],[89.20216,25.94291],[89.20276,25.93938],[89.20476,25.93922],[89.20668,25.93584],[89.2108,25.93327],[89.21023,25.93071],[89.212,25.93003],[89.21166,25.92768],[89.21498,25.92472],[89.21764,25.92034],[89.22017,25.92003],[89.22128,25.92273],[89.22231,25.92302],[89.22336,25.91734],[89.23012,25.9116],[89.23464,25.90478],[89.2474,25.90083],[89.25217,25.89716],[89.25891,25.89754],[89.2613,25.89581],[89.26408,25.8904],[89.27222,25.89224],[89.27579,25.89626],[89.27931,25.89664],[89.28177,25.89624],[89.28512,25.89144],[89.29136,25.88998]]]]}},{"type":"Feature","properties":{"name":"Kaunia","id":"5055444B28911251557363"},"geometry":{"type":"MultiPolygon","coordinates":[[[[89.31247,25.81245],[89.31086,25.81439],[89.312,25.81548],[89.31948,25.81616],[89.31919,25.82029],[89.32136,25.82218],[89.3261,25.822],[89.33026,25.81909],[89.33445,25.81946],[89.33519,25.81986],[89.33376,25.82157],[89.3336,25.82535],[89.33846,25.82255],[89.33946,25.82537],[89.34196,25.82243],[89.345,25.82492],[89.34864,25.82386],[89.34651,25.8226],[89.34751,25.82111],[89.35031,25.82205],[89.35314,25.82175],[89.36172,25.81692],[89.36355,25.81676],[89.36729,25.81862],[89.37061,25.81751],[89.37119,25.81027],[89.37568,25.80487],[89.38019,25.8017],[89.38397,25.80083],[89.38566,25.79811],[89.38844,25.79686],[89.40865,25.79585],[89.41128,25.79352],[89.4146,25.79271],[89.4164,25.79405],[89.41889,25.79225],[89.41966,25.7935],[89.42939,25.79518],[89.42946,25.7883],[89.43194,25.78895],[89.43618,25.78782],[89.43785,25.78845],[89.44286,25.78613],[89.44643,25.78697],[89.44697,25.78419],[89.45069,25.78791],[89.45523,25.78391],[89.45801,25.7867],[89.45937,25.78542],[89.45797,25.78357],[89.46126,25.78616],[89.46294,25.78617],[89.46697,25.77973],[89.46943,25.77944],[89.46922,25.77713],[89.47979,25.7627],[89.47867,25.7591],[89.48057,25.75335],[89.48219,25.75279],[89.48658,25.75441],[89.48714,25.75091],[89.49168,25.75007],[89.49342,25.75146],[89.49653,25.74795],[89.4991,25.7482],[89.50042,25.74589],[89.50083,25.74435],[89.49967,25.74418],[89.49827,25.73017],[89.48798,25.72941],[89.48496,25.72797],[89.48648,25.72268],[89.49215,25.71334],[89.48895,25.71321],[89.487,25.71511],[89.48537,25.71387],[89.48446,25.71466],[89.47763,25.71436],[89.47652,25.71051],[89.47508,25.71049],[89.4745,25.7124],[89.47324,25.71231],[89.47219,25.71128],[89.47228,25.70889],[89.47036,25.70841],[89.46767,25.7104],[89.46339,25.70896],[89.46155,25.71226],[89.45987,25.71255],[89.45963,25.70986],[89.45661,25.70879],[89.45668,25.70661],[89.45548,25.70488],[89.45641,25.70238],[89.45366,25.7011],[89.45333,25.69766],[89.45093,25.70074],[89.45007,25.70067],[89.44968,25.69899],[89.44843,25.6989],[89.44305,25.70267],[89.4432,25.70401],[89.44572,25.70547],[89.44514,25.70852],[89.44158,25.70915],[89.44407,25.71308],[89.44681,25.71381],[89.44563,25.71604],[89.44678,25.718],[89.43926,25.71932],[89.4371,25.72151],[89.43741,25.72399],[89.4433,25.72638],[89.44197,25.7272],[89.43992,25.7268],[89.43789,25.72653],[89.43669,25.72809],[89.43559,25.73372],[89.42981,25.73496],[89.42535,25.73304],[89.42429,25.73657],[89.4214,25.73366],[89.42011,25.73526],[89.41304,25.73528],[89.40845,25.73924],[89.40391,25.73936],[89.39923,25.74078],[89.3985,25.73937],[89.39622,25.73853],[89.39482,25.73617],[89.39619,25.73186],[89.39322,25.72837],[89.39459,25.72646],[89.3929,25.72546],[89.39074,25.72811],[89.3894,25.72755],[89.38716,25.72904],[89.38665,25.73209],[89.38835,25.73373],[89.38779,25.73426],[89.38644,25.73401],[89.38544,25.73159],[89.38186,25.73033],[89.3803,25.73055],[89.37963,25.73212],[89.37925,25.73065],[89.37759,25.73029],[89.3772,25.73203],[89.37269,25.73293],[89.37186,25.73149],[89.36764,25.73035],[89.36358,25.72284],[89.35635,25.72338],[89.35575,25.72713],[89.35346,25.72702],[89.35368,25.72363],[89.35525,25.72332],[89.35529,25.7215],[89.3537,25.72159],[89.35066,25.7175],[89.34393,25.72054],[89.34472,25.72331],[89.34295,25.72442],[89.34533,25.726],[89.34461,25.72921],[89.34544,25.73118],[89.34395,25.73073],[89.34196,25.73212],[89.34466,25.73433],[89.34225,25.73912],[89.34217,25.74147],[89.34285,25.74312],[89.34439,25.74258],[89.34483,25.74343],[89.34278,25.74468],[89.34002,25.74219],[89.33775,25.74387],[89.33872,25.7458],[89.34348,25.74746],[89.3396,25.75402],[89.33762,25.75504],[89.33819,25.75591],[89.3371,25.75707],[89.33382,25.75648],[89.33379,25.7534],[89.33081,25.75201],[89.3301,25.75267],[89.33076,25.75537],[89.32523,25.75297],[89.32087,25.75363],[89.31794,25.75085],[89.31512,25.74515],[89.31125,25.74644],[89.30553,25.74143],[89.30136,25.74025],[89.30334,25.74211],[89.30363,25.74375],[89.2986,25.74551],[89.29785,25.74654],[89.30663,25.77458],[89.30919,25.78133],[89.31027,25.78124],[89.30971,25.78311],[89.31172,25.79028],[89.30964,25.79263],[89.3112,25.794],[89.31095,25.79743],[89.31249,25.79726],[89.3129,25.79981],[89.3154,25.80024],[89.31663,25.8015],[89.3176,25.8009],[89.31758,25.80274],[89.31589,25.80294],[89.3161,25.80452],[89.31743,25.80772],[89.31921,25.80875],[89.31766,25.81129],[89.31247,25.81245]]]]}},{"type":"Feature","properties":{"name":"Mitha Pukur","id":"5055444B64460137576377"},"geometry":{"type":"MultiPolygon","coordinates":[[[[89.10492,25.5339],[89.10489,25.53804],[89.10329,25.53839],[89.10329,25.53912],[89.10519,25.54054],[89.10774,25.54023],[89.11163,25.54993],[89.11133,25.5513],[89.11282,25.55217],[89.11494,25.55092],[89.11751,25.55244],[89.11662,25.55358],[89.11968,25.55311],[89.12137,25.56001],[89.124,25.56201],[89.12501,25.56418],[89.12724,25.5653],[89.12764,25.5666],[89.13922,25.57065],[89.14152,25.57279],[89.14288,25.57525],[89.14036,25.5788],[89.14066,25.58522],[89.14609,25.58176],[89.1439,25.58707],[89.14205,25.58778],[89.14118,25.58926],[89.13551,25.60436],[89.13368,25.61293],[89.14227,25.62146],[89.14313,25.62429],[89.14533,25.62555],[89.14511,25.62669],[89.14369,25.62787],[89.13919,25.62626],[89.13439,25.62713],[89.13078,25.62984],[89.12976,25.63267],[89.13032,25.639],[89.13384,25.6455],[89.13537,25.65121],[89.13671,25.65159],[89.13843,25.6493],[89.1396,25.65005],[89.13734,25.65653],[89.14036,25.665],[89.14359,25.6661],[89.15438,25.66687],[89.16135,25.66538],[89.1631,25.66427],[89.16636,25.65939],[89.17266,25.65871],[89.17634,25.65689],[89.18179,25.65222],[89.19059,25.65504],[89.21727,25.65702],[89.21884,25.65838],[89.22201,25.66477],[89.22714,25.6665],[89.2293,25.66548],[89.23035,25.66197],[89.23195,25.66155],[89.23333,25.66397],[89.2334,25.6732],[89.23612,25.67471],[89.23985,25.6744],[89.24216,25.67657],[89.24292,25.67532],[89.24217,25.6736],[89.24311,25.67311],[89.24184,25.6714],[89.24254,25.66992],[89.24427,25.66948],[89.24343,25.66736],[89.2464,25.66796],[89.25004,25.67024],[89.25378,25.67078],[89.25662,25.66932],[89.25856,25.66956],[89.25838,25.67498],[89.25961,25.67752],[89.26329,25.67848],[89.27625,25.67959],[89.27895,25.67775],[89.27762,25.67356],[89.27858,25.67244],[89.28128,25.67438],[89.28033,25.68078],[89.28267,25.68226],[89.28662,25.68063],[89.28946,25.67603],[89.2933,25.67603],[89.29349,25.6744],[89.29137,25.67229],[89.29252,25.6703],[89.29573,25.67041],[89.29994,25.6735],[89.3037,25.67145],[89.30631,25.66662],[89.31609,25.66746],[89.31725,25.66558],[89.31874,25.66507],[89.3193,25.66227],[89.3222,25.65711],[89.32535,25.65909],[89.3351,25.65741],[89.33851,25.66157],[89.33575,25.66436],[89.33836,25.66612],[89.33967,25.66564],[89.34105,25.66197],[89.34396,25.65927],[89.34568,25.65534],[89.34808,25.6579],[89.34938,25.6613],[89.35067,25.66176],[89.35453,25.65873],[89.34988,25.65265],[89.35086,25.65242],[89.35298,25.64767],[89.35477,25.6469],[89.35779,25.64922],[89.35821,25.65099],[89.3577,25.65181],[89.355,25.64985],[89.3534,25.65048],[89.353,25.65154],[89.35542,25.65534],[89.35831,25.657],[89.3647,25.65817],[89.36552,25.6558],[89.3599,25.65048],[89.36035,25.64779],[89.36382,25.64254],[89.36055,25.6421],[89.36005,25.63769],[89.36094,25.63605],[89.36293,25.63537],[89.36655,25.63951],[89.37085,25.63873],[89.37451,25.63946],[89.37238,25.63125],[89.37295,25.63064],[89.3756,25.63219],[89.3755,25.63745],[89.37643,25.63856],[89.37952,25.63977],[89.38461,25.63961],[89.385,25.63827],[89.38255,25.63348],[89.37775,25.6321],[89.37733,25.62903],[89.37787,25.62802],[89.38086,25.62805],[89.38481,25.62607],[89.38963,25.62563],[89.38845,25.6227],[89.38916,25.61964],[89.38563,25.61532],[89.39012,25.6166],[89.39179,25.61552],[89.39306,25.612],[89.39293,25.60911],[89.39113,25.60823],[89.38527,25.60957],[89.38375,25.61094],[89.38285,25.61044],[89.38631,25.60538],[89.38914,25.60667],[89.39117,25.60631],[89.39058,25.60054],[89.39544,25.59992],[89.39669,25.5968],[89.39423,25.59578],[89.39019,25.59754],[89.38594,25.59335],[89.38583,25.59139],[89.39314,25.58955],[89.39411,25.58817],[89.39258,25.58654],[89.38778,25.58708],[89.38463,25.58504],[89.38796,25.58165],[89.38391,25.57633],[89.38083,25.5757],[89.37811,25.58037],[89.37698,25.5802],[89.37706,25.57929],[89.37909,25.57519],[89.38377,25.57337],[89.38704,25.57078],[89.3913,25.57111],[89.39174,25.56951],[89.38921,25.56834],[89.38848,25.56416],[89.39263,25.55853],[89.39266,25.55574],[89.3984,25.55476],[89.39761,25.55273],[89.39918,25.552],[89.40426,25.55525],[89.40517,25.55947],[89.40825,25.55962],[89.40909,25.55865],[89.40855,25.55276],[89.40466,25.55006],[89.40761,25.54944],[89.4117,25.55146],[89.41312,25.55093],[89.41329,25.54944],[89.41273,25.54857],[89.40475,25.54699],[89.40449,25.5443],[89.40589,25.54215],[89.40753,25.54164],[89.41098,25.54269],[89.41178,25.54161],[89.40568,25.53573],[89.40487,25.53596],[89.40525,25.5387],[89.4034,25.5388],[89.40258,25.53431],[89.40496,25.53223],[89.41182,25.5364],[89.41695,25.5343],[89.41564,25.52973],[89.4186,25.52859],[89.42021,25.52923],[89.41962,25.53149],[89.42104,25.53357],[89.42428,25.53622],[89.42761,25.53718],[89.42839,25.53531],[89.42757,25.53218],[89.42853,25.53161],[89.43392,25.53317],[89.43537,25.53744],[89.43792,25.53846],[89.43971,25.5303],[89.43784,25.52712],[89.43945,25.52603],[89.4412,25.52829],[89.44322,25.52763],[89.44234,25.52553],[89.43517,25.52393],[89.43404,25.5205],[89.43667,25.51952],[89.44016,25.51999],[89.43975,25.51872],[89.44351,25.51843],[89.44447,25.52177],[89.45052,25.51765],[89.44165,25.51384],[89.43979,25.5121],[89.44127,25.50663],[89.44429,25.50396],[89.43996,25.50241],[89.43938,25.50112],[89.442,25.48811],[89.4401,25.48672],[89.43628,25.48821],[89.43364,25.48714],[89.43261,25.48575],[89.43316,25.48374],[89.43226,25.47966],[89.43013,25.47424],[89.42562,25.4759],[89.42395,25.47369],[89.42329,25.47007],[89.41891,25.4685],[89.41835,25.46477],[89.41559,25.46451],[89.41518,25.46276],[89.40835,25.46695],[89.40873,25.46815],[89.4079,25.46886],[89.40461,25.46964],[89.40333,25.47187],[89.40108,25.47251],[89.40163,25.47609],[89.40054,25.47571],[89.4005,25.47634],[89.40406,25.47906],[89.40487,25.48344],[89.40158,25.48465],[89.39598,25.4843],[89.39303,25.48698],[89.3895,25.48844],[89.38842,25.49044],[89.38421,25.49218],[89.38367,25.49758],[89.37807,25.50133],[89.3757,25.50111],[89.37337,25.49798],[89.36707,25.49734],[89.36515,25.49541],[89.36267,25.49806],[89.35898,25.49863],[89.35269,25.4976],[89.34846,25.49994],[89.34462,25.49818],[89.34321,25.50154],[89.34336,25.49876],[89.34137,25.49718],[89.34145,25.50179],[89.3393,25.49759],[89.33595,25.49726],[89.33469,25.49846],[89.33494,25.50269],[89.33306,25.50366],[89.31662,25.49972],[89.31632,25.50316],[89.31793,25.50691],[89.32014,25.50902],[89.32004,25.51036],[89.31697,25.51162],[89.30307,25.51501],[89.30177,25.51154],[89.29911,25.51229],[89.29713,25.51165],[89.29587,25.506],[89.29475,25.5052],[89.29332,25.50603],[89.29205,25.51033],[89.29006,25.50941],[89.28786,25.50977],[89.28718,25.51298],[89.28475,25.51487],[89.28181,25.51331],[89.2779,25.51476],[89.27581,25.51633],[89.27535,25.51966],[89.27398,25.52068],[89.27255,25.51725],[89.27319,25.5124],[89.27108,25.50982],[89.26361,25.51252],[89.26497,25.51665],[89.26301,25.5193],[89.26038,25.51923],[89.25747,25.51732],[89.25488,25.51897],[89.25365,25.51776],[89.24868,25.52078],[89.24556,25.51704],[89.24495,25.50974],[89.23781,25.50828],[89.2353,25.50363],[89.22622,25.50447],[89.2206,25.50318],[89.21827,25.50401],[89.21558,25.50362],[89.21372,25.50599],[89.20408,25.50793],[89.19994,25.51027],[89.1956,25.50951],[89.18765,25.50464],[89.18289,25.5037],[89.18035,25.50383],[89.17829,25.5057],[89.17414,25.50718],[89.17092,25.50404],[89.17001,25.49835],[89.1672,25.49606],[89.15823,25.49551],[89.15561,25.49281],[89.15136,25.49044],[89.1492,25.49304],[89.14511,25.49094],[89.14433,25.48666],[89.14278,25.4854],[89.14268,25.48264],[89.14559,25.47989],[89.14791,25.47095],[89.14934,25.4688],[89.15261,25.46661],[89.1543,25.4631],[89.15406,25.4617],[89.15209,25.46023],[89.15062,25.45558],[89.15356,25.4501],[89.15356,25.44697],[89.15194,25.44291],[89.14958,25.44231],[89.14798,25.43845],[89.1491,25.43477],[89.14851,25.43395],[89.14277,25.43616],[89.13974,25.43629],[89.13797,25.4401],[89.13248,25.44103],[89.13296,25.44241],[89.13522,25.44339],[89.138,25.44689],[89.13409,25.44639],[89.12996,25.44821],[89.12955,25.44726],[89.13117,25.44583],[89.12994,25.44487],[89.12524,25.45173],[89.1226,25.44978],[89.12234,25.45177],[89.12059,25.45286],[89.11527,25.45353],[89.11589,25.45556],[89.12223,25.4581],[89.13034,25.45823],[89.12998,25.45988],[89.12502,25.46139],[89.12164,25.46052],[89.12341,25.4688],[89.12053,25.46771],[89.11899,25.46253],[89.11508,25.46136],[89.11485,25.46781],[89.11282,25.47049],[89.10637,25.47174],[89.10462,25.47431],[89.10561,25.47684],[89.10968,25.47871],[89.11168,25.48113],[89.11002,25.48435],[89.1049,25.48366],[89.10402,25.48441],[89.10824,25.48693],[89.10799,25.48793],[89.1048,25.48818],[89.10295,25.48965],[89.10314,25.49106],[89.10564,25.4906],[89.10234,25.49423],[89.10378,25.49559],[89.1039,25.49981],[89.10484,25.50005],[89.10661,25.4981],[89.10688,25.50121],[89.11005,25.50154],[89.11108,25.50287],[89.11067,25.50598],[89.10677,25.50653],[89.10693,25.50838],[89.10893,25.50764],[89.10926,25.50881],[89.11101,25.50904],[89.11302,25.50653],[89.11486,25.50616],[89.11394,25.50834],[89.11106,25.50991],[89.11016,25.51193],[89.10896,25.51171],[89.10705,25.50886],[89.10442,25.51245],[89.10493,25.51373],[89.11076,25.51386],[89.10388,25.51619],[89.10541,25.51948],[89.10186,25.52802],[89.10452,25.53151],[89.10492,25.5339]]]]}},{"type":"Feature","properties":{"name":"Pirgachha","id":"5055444B86740606942965"},"geometry":{"type":"MultiPolygon","coordinates":[[[[89.30158,25.74013],[89.30553,25.74143],[89.31125,25.74644],[89.31512,25.74515],[89.31794,25.75085],[89.32087,25.75363],[89.32523,25.75297],[89.33076,25.75537],[89.3301,25.75267],[89.33081,25.75201],[89.33379,25.7534],[89.33382,25.75648],[89.33755,25.75697],[89.33819,25.75591],[89.33762,25.75504],[89.3396,25.75402],[89.34348,25.74746],[89.33872,25.7458],[89.33775,25.74387],[89.34002,25.74219],[89.34278,25.74468],[89.34483,25.74343],[89.34439,25.74258],[89.34285,25.74312],[89.34217,25.74147],[89.34225,25.73912],[89.34466,25.73433],[89.34196,25.73212],[89.34395,25.73073],[89.34544,25.73118],[89.34461,25.72921],[89.34533,25.726],[89.34295,25.72442],[89.34472,25.72331],[89.34393,25.72054],[89.35066,25.7175],[89.3537,25.72159],[89.35529,25.7215],[89.35525,25.72332],[89.35368,25.72363],[89.35346,25.72702],[89.35575,25.72713],[89.35635,25.72338],[89.36358,25.72284],[89.36764,25.73035],[89.37186,25.73149],[89.37269,25.73293],[89.3772,25.73203],[89.37759,25.73029],[89.37925,25.73065],[89.37963,25.73212],[89.3803,25.73055],[89.38186,25.73033],[89.38544,25.73159],[89.38644,25.73401],[89.38779,25.73426],[89.38835,25.73373],[89.38665,25.73209],[89.38716,25.72904],[89.3894,25.72755],[89.39074,25.72811],[89.3929,25.72546],[89.39459,25.72646],[89.39322,25.72837],[89.39619,25.73186],[89.39482,25.73617],[89.39678,25.73907],[89.3987,25.73954],[89.3989,25.74073],[89.40845,25.73924],[89.41304,25.73528],[89.42011,25.73526],[89.4214,25.73366],[89.42389,25.73658],[89.42535,25.73304],[89.42981,25.73496],[89.43559,25.73372],[89.43588,25.7296],[89.43789,25.72653],[89.44197,25.7272],[89.44334,25.72658],[89.43709,25.72368],[89.43742,25.72061],[89.43926,25.71932],[89.44678,25.718],[89.44563,25.71604],[89.44681,25.71381],[89.44407,25.71308],[89.44159,25.70944],[89.4424,25.70866],[89.44484,25.70879],[89.44584,25.70696],[89.44564,25.70526],[89.4432,25.70401],[89.44305,25.70267],[89.44843,25.6989],[89.44968,25.69899],[89.45007,25.70067],[89.45093,25.70074],[89.45333,25.69766],[89.45366,25.7011],[89.45641,25.70238],[89.45548,25.70488],[89.45668,25.70661],[89.45661,25.70879],[89.45963,25.70986],[89.45987,25.71255],[89.46155,25.71226],[89.46339,25.70896],[89.46767,25.7104],[89.47036,25.70841],[89.47228,25.70889],[89.47219,25.71128],[89.47324,25.71231],[89.4745,25.7124],[89.47508,25.71049],[89.47652,25.71051],[89.47763,25.71436],[89.48446,25.71466],[89.48537,25.71387],[89.487,25.71511],[89.48895,25.71321],[89.49482,25.71271],[89.50825,25.7173],[89.51528,25.70673],[89.51344,25.69944],[89.51504,25.68945],[89.51634,25.68646],[89.51965,25.68595],[89.51964,25.68017],[89.51592,25.67224],[89.51416,25.6622],[89.5144,25.65823],[89.51761,25.65998],[89.51923,25.65877],[89.51839,25.65294],[89.51924,25.64939],[89.51864,25.64425],[89.5263,25.65108],[89.52755,25.65104],[89.53,25.64864],[89.53084,25.64892],[89.53079,25.65499],[89.53236,25.65308],[89.53314,25.64979],[89.53589,25.64899],[89.53098,25.64545],[89.52732,25.63933],[89.52253,25.63395],[89.52008,25.62884],[89.52276,25.62534],[89.52186,25.62298],[89.51792,25.62276],[89.51397,25.61959],[89.5082,25.61822],[89.50339,25.61912],[89.4985,25.62333],[89.49707,25.62222],[89.50104,25.6146],[89.50305,25.61374],[89.5029,25.61154],[89.50068,25.61032],[89.49847,25.61183],[89.49757,25.6153],[89.49446,25.6147],[89.48962,25.6047],[89.48842,25.59948],[89.49051,25.59038],[89.49671,25.58745],[89.49825,25.58574],[89.494,25.58075],[89.49579,25.57865],[89.49467,25.57663],[89.49253,25.57586],[89.48943,25.57686],[89.48755,25.57587],[89.48559,25.57897],[89.48649,25.58103],[89.48448,25.58365],[89.4784,25.58778],[89.47739,25.59019],[89.47265,25.59252],[89.47323,25.59546],[89.47355,25.5978],[89.47101,25.59872],[89.4698,25.59863],[89.4707,25.59752],[89.47015,25.59663],[89.46731,25.59773],[89.46451,25.59736],[89.46342,25.59448],[89.45982,25.59512],[89.45836,25.59141],[89.45447,25.59199],[89.45373,25.58955],[89.44895,25.59022],[89.44595,25.58564],[89.44408,25.58598],[89.4428,25.5844],[89.43769,25.5852],[89.43726,25.58806],[89.43621,25.58828],[89.43718,25.59075],[89.4355,25.59081],[89.43434,25.59201],[89.43308,25.59079],[89.43323,25.58802],[89.43228,25.58764],[89.42671,25.58868],[89.41387,25.58907],[89.41253,25.58752],[89.4121,25.5837],[89.41303,25.57577],[89.40759,25.56992],[89.40838,25.55972],[89.40517,25.55947],[89.40426,25.55525],[89.39918,25.552],[89.39761,25.55273],[89.3984,25.55476],[89.39253,25.55584],[89.39263,25.55853],[89.38848,25.56416],[89.38921,25.56834],[89.39174,25.56951],[89.3913,25.57111],[89.38704,25.57078],[89.38377,25.57337],[89.37909,25.57519],[89.37698,25.57988],[89.37811,25.58037],[89.38083,25.5757],[89.38391,25.57633],[89.38796,25.58165],[89.38463,25.58504],[89.38778,25.58708],[89.39258,25.58654],[89.39411,25.58817],[89.39314,25.58955],[89.38583,25.59139],[89.38594,25.59335],[89.39019,25.59754],[89.39423,25.59578],[89.39669,25.5968],[89.39544,25.59992],[89.39058,25.60054],[89.39117,25.60631],[89.38914,25.60667],[89.38631,25.60538],[89.38285,25.61044],[89.38375,25.61094],[89.38527,25.60957],[89.39113,25.60823],[89.39293,25.60911],[89.39306,25.612],[89.39179,25.61552],[89.39012,25.6166],[89.38563,25.61532],[89.38916,25.61964],[89.38845,25.6227],[89.38963,25.62563],[89.38481,25.62607],[89.38086,25.62805],[89.37787,25.62802],[89.37733,25.62903],[89.37775,25.6321],[89.38255,25.63348],[89.385,25.63827],[89.38461,25.63961],[89.37952,25.63977],[89.37643,25.63856],[89.3755,25.63745],[89.3756,25.63219],[89.37295,25.63064],[89.37238,25.63125],[89.37451,25.63946],[89.37085,25.63873],[89.36655,25.63951],[89.3632,25.63541],[89.36094,25.63605],[89.35989,25.6392],[89.36046,25.64195],[89.36382,25.64254],[89.36035,25.64779],[89.3599,25.65048],[89.36512,25.65526],[89.36533,25.65765],[89.36442,25.65824],[89.35981,25.65738],[89.35542,25.65534],[89.35315,25.65089],[89.35481,25.64981],[89.3577,25.65181],[89.35809,25.65014],[89.35615,25.6475],[89.35432,25.64703],[89.35262,25.6481],[89.35086,25.65242],[89.34988,25.65265],[89.35324,25.65609],[89.35449,25.65928],[89.34984,25.6617],[89.34711,25.65636],[89.34557,25.65539],[89.3442,25.65889],[89.34105,25.66197],[89.33908,25.66609],[89.33721,25.66581],[89.33575,25.66436],[89.33851,25.66157],[89.3351,25.65741],[89.32535,25.65909],[89.3222,25.65711],[89.3193,25.66227],[89.31827,25.66713],[89.31596,25.66932],[89.31776,25.67196],[89.3167,25.67435],[89.31955,25.67403],[89.31915,25.67198],[89.32182,25.67252],[89.32098,25.67453],[89.32327,25.67491],[89.3195,25.67763],[89.32104,25.68294],[89.32307,25.68302],[89.32349,25.68444],[89.31954,25.68793],[89.31706,25.68693],[89.31641,25.68771],[89.31345,25.68765],[89.31408,25.68855],[89.31317,25.68896],[89.3124,25.68795],[89.3103,25.68806],[89.31047,25.6897],[89.30875,25.69055],[89.30719,25.69372],[89.30459,25.69625],[89.30857,25.70035],[89.31009,25.70346],[89.31107,25.70252],[89.31575,25.7034],[89.31526,25.70476],[89.31647,25.70463],[89.31689,25.70574],[89.31574,25.70844],[89.32088,25.7091],[89.32366,25.71205],[89.32276,25.7129],[89.3234,25.71431],[89.32097,25.71493],[89.31955,25.71739],[89.31865,25.71737],[89.31796,25.71954],[89.31722,25.71913],[89.31772,25.71719],[89.31653,25.71672],[89.31511,25.71786],[89.3141,25.7208],[89.31238,25.71995],[89.31094,25.7215],[89.30791,25.72192],[89.30515,25.73081],[89.29576,25.73329],[89.29899,25.73807],[89.30158,25.74013]]]]}},{"type":"Feature","properties":{"name":"Pirganj","id":"5055444B35718531117283"},"geometry":{"type":"MultiPolygon","coordinates":[[[[89.28066,25.30135],[89.28252,25.30185],[89.28007,25.30304],[89.27063,25.30587],[89.26869,25.31094],[89.26577,25.31309],[89.26295,25.31279],[89.26001,25.31009],[89.25678,25.31079],[89.25718,25.31277],[89.26098,25.31447],[89.26202,25.31745],[89.26538,25.31868],[89.26495,25.32135],[89.2632,25.32319],[89.26064,25.32274],[89.25673,25.31642],[89.25474,25.31551],[89.24486,25.31874],[89.23782,25.31914],[89.23818,25.32169],[89.2357,25.3234],[89.23582,25.32602],[89.23913,25.32874],[89.2446,25.33005],[89.24604,25.33315],[89.24543,25.33415],[89.23522,25.33304],[89.23341,25.33674],[89.23095,25.33839],[89.22673,25.33043],[89.22127,25.33235],[89.22708,25.34404],[89.22864,25.34413],[89.23049,25.3471],[89.23107,25.34647],[89.23007,25.34453],[89.23442,25.34068],[89.23778,25.33973],[89.23939,25.34064],[89.23869,25.34243],[89.23452,25.34404],[89.23389,25.34538],[89.24109,25.348],[89.24617,25.35243],[89.24489,25.35301],[89.23955,25.34998],[89.23334,25.35249],[89.23211,25.35586],[89.23652,25.35658],[89.23774,25.35767],[89.23598,25.36099],[89.23606,25.36487],[89.23365,25.36656],[89.22991,25.366],[89.23177,25.36219],[89.23157,25.36075],[89.22538,25.35789],[89.22202,25.35861],[89.22252,25.35994],[89.22601,25.36245],[89.22543,25.36474],[89.21488,25.36558],[89.20969,25.36447],[89.20987,25.36559],[89.2065,25.36808],[89.21074,25.36812],[89.21101,25.36954],[89.21257,25.3704],[89.21216,25.37166],[89.21637,25.37448],[89.21709,25.37666],[89.21528,25.37875],[89.21532,25.38049],[89.21177,25.38133],[89.20661,25.38628],[89.20491,25.38869],[89.20523,25.39149],[89.2028,25.39215],[89.20205,25.3941],[89.20034,25.39437],[89.20076,25.39221],[89.20248,25.39081],[89.20171,25.38917],[89.20006,25.38876],[89.19303,25.39045],[89.18809,25.38646],[89.1849,25.39527],[89.18318,25.39681],[89.1765,25.39793],[89.17635,25.40162],[89.17199,25.40513],[89.16927,25.40444],[89.16473,25.39992],[89.16262,25.40541],[89.16053,25.4052],[89.16017,25.40279],[89.15892,25.40204],[89.15177,25.40347],[89.1507,25.40509],[89.15222,25.40569],[89.15706,25.40333],[89.15816,25.40365],[89.15681,25.4081],[89.15466,25.40972],[89.14809,25.40839],[89.14462,25.41043],[89.13951,25.41083],[89.13756,25.41253],[89.1387,25.41474],[89.14527,25.41161],[89.1507,25.41261],[89.15164,25.41443],[89.14866,25.41661],[89.15093,25.41983],[89.15037,25.42105],[89.15191,25.42469],[89.14833,25.43102],[89.1491,25.43477],[89.14798,25.43845],[89.14958,25.44231],[89.15194,25.44291],[89.15356,25.44697],[89.15356,25.4501],[89.15062,25.45558],[89.15209,25.46023],[89.15406,25.4617],[89.1543,25.4631],[89.15261,25.46661],[89.14934,25.4688],[89.14791,25.47095],[89.14559,25.47989],[89.14268,25.48264],[89.14278,25.4854],[89.14433,25.48666],[89.14511,25.49094],[89.1492,25.49304],[89.15136,25.49044],[89.15561,25.49281],[89.15823,25.49551],[89.1672,25.49606],[89.17001,25.49835],[89.17092,25.50404],[89.17414,25.50718],[89.17829,25.5057],[89.18035,25.50383],[89.18289,25.5037],[89.18765,25.50464],[89.1956,25.50951],[89.19994,25.51027],[89.20408,25.50793],[89.21372,25.50599],[89.21558,25.50362],[89.21827,25.50401],[89.2206,25.50318],[89.22622,25.50447],[89.2353,25.50363],[89.23781,25.50828],[89.24495,25.50974],[89.24591,25.51798],[89.24868,25.52078],[89.25075,25.51987],[89.25365,25.51776],[89.25488,25.51897],[89.25747,25.51732],[89.26038,25.51923],[89.26301,25.5193],[89.26497,25.51665],[89.26361,25.51252],[89.27108,25.50982],[89.27319,25.5124],[89.27255,25.51725],[89.27398,25.52068],[89.27535,25.51966],[89.27581,25.51633],[89.2779,25.51476],[89.28181,25.51331],[89.28475,25.51487],[89.28718,25.51298],[89.28786,25.50977],[89.29006,25.50941],[89.29205,25.51033],[89.29332,25.50603],[89.29475,25.5052],[89.29587,25.506],[89.29713,25.51165],[89.29911,25.51229],[89.30177,25.51154],[89.30307,25.51501],[89.31697,25.51162],[89.32004,25.51036],[89.32014,25.50902],[89.31793,25.50691],[89.31632,25.50316],[89.31662,25.49972],[89.33306,25.50366],[89.33494,25.50269],[89.33469,25.49846],[89.33595,25.49726],[89.3393,25.49759],[89.34145,25.50179],[89.34137,25.49718],[89.34336,25.49876],[89.34321,25.50154],[89.34462,25.49818],[89.34846,25.49994],[89.35269,25.4976],[89.35898,25.49863],[89.36267,25.49806],[89.36515,25.49541],[89.36707,25.49734],[89.37337,25.49798],[89.3757,25.50111],[89.37807,25.50133],[89.38367,25.49758],[89.38421,25.49218],[89.38842,25.49044],[89.3895,25.48844],[89.39303,25.48698],[89.39598,25.4843],[89.40158,25.48465],[89.40487,25.48344],[89.40406,25.47906],[89.4005,25.47634],[89.40054,25.47571],[89.40163,25.47609],[89.40108,25.47251],[89.40333,25.47187],[89.40461,25.46964],[89.40873,25.46815],[89.40808,25.46531],[89.40507,25.46291],[89.40127,25.46522],[89.39882,25.46404],[89.39781,25.45874],[89.39479,25.45333],[89.39274,25.44344],[89.39141,25.44184],[89.38408,25.44372],[89.38034,25.44375],[89.38065,25.43826],[89.37789,25.43219],[89.38114,25.42927],[89.38302,25.42954],[89.38359,25.42871],[89.38293,25.42586],[89.38114,25.4255],[89.38089,25.42397],[89.37796,25.42426],[89.37737,25.4201],[89.379,25.41981],[89.37978,25.42104],[89.38174,25.41848],[89.37747,25.41711],[89.37675,25.41376],[89.37836,25.40982],[89.37687,25.40984],[89.37537,25.4065],[89.36571,25.40286],[89.36535,25.40105],[89.36783,25.39828],[89.36477,25.39552],[89.3646,25.39007],[89.36036,25.38593],[89.35574,25.38503],[89.35322,25.38017],[89.3508,25.37878],[89.35486,25.37278],[89.34816,25.37031],[89.34488,25.37042],[89.34398,25.36946],[89.34311,25.3664],[89.34384,25.36243],[89.34287,25.36172],[89.34273,25.35969],[89.34414,25.35816],[89.34512,25.35265],[89.34029,25.34237],[89.3402,25.33697],[89.34364,25.33617],[89.3451,25.33732],[89.34722,25.3365],[89.34631,25.32779],[89.34574,25.32694],[89.34423,25.32709],[89.33969,25.32902],[89.338,25.32717],[89.33377,25.32618],[89.33442,25.32381],[89.33258,25.32441],[89.33021,25.32193],[89.33401,25.31763],[89.3342,25.3151],[89.33639,25.31418],[89.33848,25.3142],[89.34122,25.31569],[89.34231,25.31789],[89.34196,25.31928],[89.34394,25.31976],[89.34385,25.31722],[89.34595,25.3143],[89.34496,25.31148],[89.34628,25.30983],[89.34571,25.30908],[89.3448,25.30952],[89.34341,25.30725],[89.34066,25.3067],[89.34064,25.30563],[89.34276,25.3043],[89.33928,25.30335],[89.33523,25.30361],[89.33474,25.30104],[89.33204,25.30108],[89.32893,25.30304],[89.32644,25.30046],[89.31835,25.30275],[89.31336,25.29942],[89.30387,25.30031],[89.29227,25.29924],[89.28985,25.3019],[89.28666,25.29973],[89.28066,25.30135]]]]}},{"type":"Feature","properties":{"name":"Rangpur Sadar","id":"5055444B60964273253151"},"geometry":{"type":"MultiPolygon","coordinates":[[[[89.15651,25.66637],[89.15711,25.68064],[89.15869,25.68995],[89.15408,25.69244],[89.14815,25.6936],[89.14638,25.6958],[89.14692,25.69778],[89.15131,25.69825],[89.15202,25.70282],[89.15024,25.70906],[89.14871,25.71022],[89.14334,25.71094],[89.14015,25.71415],[89.14175,25.71604],[89.14061,25.71767],[89.14233,25.72074],[89.14224,25.72398],[89.13816,25.72097],[89.13998,25.71989],[89.13957,25.71824],[89.13841,25.7178],[89.13648,25.71958],[89.13322,25.71937],[89.13293,25.72206],[89.12992,25.7235],[89.12667,25.72303],[89.12341,25.72484],[89.11897,25.72418],[89.10996,25.72591],[89.10864,25.72417],[89.11116,25.72421],[89.11163,25.72304],[89.10829,25.72274],[89.10799,25.72107],[89.10395,25.72085],[89.10068,25.72196],[89.10005,25.71584],[89.0988,25.71487],[89.09729,25.71503],[89.09528,25.71808],[89.09329,25.71481],[89.08836,25.71428],[89.08496,25.71833],[89.08342,25.72566],[89.0877,25.72672],[89.08836,25.72957],[89.08959,25.73074],[89.09445,25.73275],[89.09581,25.7324],[89.09863,25.7356],[89.10099,25.73622],[89.10171,25.73939],[89.0987,25.73987],[89.09671,25.7421],[89.09846,25.74629],[89.09505,25.74737],[89.09505,25.75113],[89.09959,25.75151],[89.10105,25.75426],[89.10442,25.75223],[89.10564,25.75244],[89.10575,25.75515],[89.10763,25.75345],[89.10869,25.75376],[89.10849,25.75616],[89.10695,25.75735],[89.10751,25.76032],[89.10452,25.76259],[89.0981,25.76156],[89.09675,25.76522],[89.09788,25.76732],[89.09791,25.77112],[89.09977,25.77188],[89.0991,25.77392],[89.10453,25.77488],[89.10347,25.77939],[89.09648,25.78027],[89.09701,25.78241],[89.09909,25.78201],[89.09938,25.78446],[89.10053,25.78376],[89.10194,25.78593],[89.10265,25.78248],[89.10457,25.78513],[89.10697,25.78461],[89.10754,25.78751],[89.10918,25.78984],[89.10524,25.79192],[89.1047,25.79697],[89.10594,25.79961],[89.10605,25.80502],[89.10705,25.80621],[89.10607,25.80814],[89.10946,25.80933],[89.11023,25.80683],[89.11078,25.80747],[89.11234,25.80665],[89.11237,25.80403],[89.11598,25.80293],[89.1162,25.80081],[89.11781,25.80083],[89.11911,25.80527],[89.11826,25.80622],[89.12019,25.80687],[89.12294,25.80583],[89.12561,25.80783],[89.12716,25.80767],[89.12612,25.80882],[89.13225,25.80961],[89.13258,25.81319],[89.13553,25.81462],[89.13582,25.81677],[89.13974,25.81937],[89.14032,25.81799],[89.1425,25.81781],[89.1429,25.81582],[89.14334,25.81767],[89.14709,25.81933],[89.14845,25.816],[89.14704,25.81632],[89.14836,25.81456],[89.15449,25.81541],[89.15591,25.81366],[89.15561,25.81637],[89.1535,25.8174],[89.15387,25.81896],[89.15515,25.81785],[89.15775,25.81802],[89.15802,25.81916],[89.16042,25.81998],[89.16244,25.81662],[89.16831,25.81465],[89.17591,25.81734],[89.17612,25.81854],[89.17348,25.819],[89.17339,25.81971],[89.17715,25.82196],[89.1783,25.82068],[89.17763,25.81702],[89.17465,25.81491],[89.1777,25.81414],[89.17818,25.81148],[89.17905,25.81241],[89.17792,25.81599],[89.17889,25.8159],[89.18087,25.8119],[89.1854,25.81534],[89.18555,25.81831],[89.18726,25.8185],[89.18619,25.8149],[89.18848,25.81327],[89.18945,25.81529],[89.19046,25.81399],[89.19023,25.8117],[89.1911,25.81137],[89.19251,25.81394],[89.1922,25.81726],[89.19624,25.81731],[89.19658,25.81843],[89.19779,25.81869],[89.195,25.81983],[89.19442,25.8189],[89.19277,25.81905],[89.19205,25.82204],[89.18951,25.82183],[89.18931,25.82397],[89.19116,25.82522],[89.18991,25.82598],[89.18933,25.82832],[89.19306,25.82961],[89.19162,25.83064],[89.19158,25.83201],[89.1934,25.83013],[89.19641,25.83133],[89.19627,25.83305],[89.19767,25.83193],[89.19759,25.83341],[89.19544,25.83401],[89.19528,25.83507],[89.19988,25.83532],[89.20018,25.83615],[89.20106,25.83575],[89.20082,25.83476],[89.20221,25.83462],[89.20177,25.83324],[89.20375,25.83353],[89.20422,25.83215],[89.2051,25.833],[89.20479,25.83492],[89.20619,25.83425],[89.20764,25.83163],[89.20576,25.83144],[89.20707,25.82984],[89.20583,25.82942],[89.2062,25.82887],[89.20988,25.8288],[89.20955,25.82621],[89.20608,25.82656],[89.20536,25.82569],[89.20822,25.82113],[89.21706,25.82161],[89.21823,25.82126],[89.21889,25.81929],[89.2231,25.82125],[89.22437,25.82093],[89.22501,25.81929],[89.23465,25.81701],[89.23879,25.82039],[89.24581,25.82311],[89.2486,25.82576],[89.2554,25.82418],[89.25603,25.82211],[89.25518,25.81915],[89.25398,25.81914],[89.25405,25.81846],[89.25627,25.81649],[89.25751,25.81656],[89.25828,25.81477],[89.26124,25.81442],[89.26279,25.81291],[89.26375,25.81479],[89.26549,25.81351],[89.26611,25.81453],[89.265,25.8167],[89.26775,25.81738],[89.26853,25.81882],[89.27083,25.81796],[89.27239,25.82016],[89.27145,25.81629],[89.27273,25.81681],[89.27264,25.81478],[89.27512,25.81748],[89.27589,25.81995],[89.28037,25.82328],[89.28073,25.82197],[89.28498,25.8233],[89.2873,25.819],[89.29137,25.81703],[89.29386,25.81976],[89.29655,25.8205],[89.29849,25.81997],[89.29925,25.8191],[89.29909,25.81659],[89.30078,25.81715],[89.30127,25.81495],[89.30373,25.81577],[89.30416,25.81327],[89.30227,25.81259],[89.30242,25.81155],[89.30481,25.81046],[89.30741,25.81106],[89.30791,25.80963],[89.30693,25.80864],[89.3051,25.80889],[89.30548,25.8078],[89.30771,25.80775],[89.3108,25.80958],[89.3126,25.81254],[89.31766,25.81129],[89.3192,25.80937],[89.31743,25.80772],[89.3161,25.80452],[89.31589,25.80294],[89.31764,25.80261],[89.31751,25.80075],[89.31663,25.8015],[89.3154,25.80024],[89.31353,25.80025],[89.31249,25.79726],[89.31095,25.79743],[89.3112,25.794],[89.30964,25.79263],[89.31172,25.79028],[89.30971,25.78311],[89.31027,25.78124],[89.30919,25.78133],[89.30663,25.77458],[89.29785,25.74654],[89.29929,25.74519],[89.30342,25.74398],[89.3036,25.74274],[89.29556,25.73371],[89.29698,25.73249],[89.30515,25.73081],[89.30791,25.72192],[89.31094,25.7215],[89.31238,25.71995],[89.3141,25.7208],[89.31511,25.71786],[89.31653,25.71672],[89.31772,25.71719],[89.31722,25.71913],[89.31796,25.71954],[89.31865,25.71737],[89.31955,25.71739],[89.32097,25.71493],[89.3234,25.71431],[89.32276,25.7129],[89.32366,25.71205],[89.32088,25.7091],[89.31574,25.70844],[89.31689,25.70574],[89.31647,25.70463],[89.31526,25.70476],[89.31575,25.7034],[89.31107,25.70252],[89.31009,25.70346],[89.30857,25.70035],[89.30459,25.69625],[89.30719,25.69372],[89.30875,25.69055],[89.31047,25.6897],[89.3103,25.68806],[89.3124,25.68795],[89.31317,25.68896],[89.31408,25.68855],[89.31345,25.68765],[89.31641,25.68771],[89.31706,25.68693],[89.31954,25.68793],[89.32349,25.68444],[89.32307,25.68302],[89.32104,25.68294],[89.3195,25.67763],[89.32333,25.67533],[89.32098,25.67453],[89.32182,25.67252],[89.31915,25.67198],[89.31955,25.67403],[89.3167,25.67435],[89.31776,25.67196],[89.31596,25.66932],[89.31803,25.66749],[89.31863,25.66551],[89.31725,25.66558],[89.31571,25.66761],[89.30631,25.66662],[89.3037,25.67145],[89.29994,25.6735],[89.29573,25.67041],[89.29252,25.6703],[89.29137,25.67229],[89.29349,25.6744],[89.2933,25.67603],[89.28946,25.67603],[89.28662,25.68063],[89.28267,25.68226],[89.28033,25.68078],[89.28128,25.67438],[89.27858,25.67244],[89.27762,25.67356],[89.27895,25.67775],[89.27625,25.67959],[89.26329,25.67848],[89.25961,25.67752],[89.25838,25.67498],[89.25856,25.66956],[89.25662,25.66932],[89.25378,25.67078],[89.25004,25.67024],[89.2464,25.66796],[89.24343,25.66736],[89.24427,25.66948],[89.24254,25.66992],[89.24184,25.6714],[89.24311,25.67311],[89.24217,25.6736],[89.24292,25.67532],[89.24216,25.67657],[89.23985,25.6744],[89.23612,25.67471],[89.2334,25.6732],[89.23333,25.66397],[89.23195,25.66155],[89.23035,25.66197],[89.2293,25.66548],[89.22714,25.6665],[89.22201,25.66477],[89.21884,25.65838],[89.21727,25.65702],[89.19059,25.65504],[89.18179,25.65222],[89.17634,25.65689],[89.17266,25.65871],[89.16636,25.65939],[89.16208,25.6651],[89.15651,25.66637]]]]}},{"type":"Feature","properties":{"name":"Taraganj","id":"5055444B41041723149943"},"geometry":{"type":"MultiPolygon","coordinates":[[[[89.09094,25.7314],[89.08835,25.73204],[89.08681,25.73708],[89.08515,25.73637],[89.08419,25.7386],[89.08064,25.74155],[89.07595,25.74327],[89.07301,25.74208],[89.07204,25.7401],[89.06957,25.74052],[89.07177,25.73683],[89.06746,25.73853],[89.06544,25.7383],[89.06454,25.73596],[89.05491,25.73721],[89.05474,25.73626],[89.06142,25.72787],[89.06044,25.72653],[89.054,25.7274],[89.0487,25.72959],[89.04705,25.7315],[89.04386,25.73979],[89.03629,25.74202],[89.03402,25.74062],[89.02484,25.74154],[89.02074,25.74087],[89.01813,25.7395],[89.01752,25.73812],[89.01877,25.73664],[89.02129,25.73625],[89.02165,25.73427],[89.01666,25.73569],[89.01289,25.73457],[89.01159,25.73633],[89.01202,25.73784],[89.01032,25.73877],[89.01244,25.74048],[89.01062,25.74465],[89.00459,25.7477],[88.9926,25.74731],[88.9915,25.75106],[88.98769,25.75733],[88.9836,25.75538],[88.98232,25.75639],[88.97817,25.74958],[88.97465,25.75273],[88.96813,25.74971],[88.96531,25.74936],[88.96675,25.74687],[88.96504,25.74442],[88.96552,25.74192],[88.96449,25.74166],[88.96633,25.73901],[88.96605,25.73769],[88.96205,25.73749],[88.96107,25.73913],[88.9575,25.73924],[88.95525,25.74202],[88.95203,25.74242],[88.95425,25.74279],[88.95344,25.75056],[88.95178,25.75053],[88.95083,25.75343],[88.94539,25.75258],[88.94385,25.75509],[88.94352,25.75856],[88.94383,25.7605],[88.94569,25.76142],[88.94305,25.76255],[88.94081,25.76191],[88.94045,25.76368],[88.94547,25.76414],[88.9461,25.76749],[88.9441,25.76791],[88.94552,25.77514],[88.9475,25.77302],[88.9483,25.77635],[88.94983,25.77806],[88.95714,25.77834],[88.95678,25.78014],[88.95927,25.78106],[88.95931,25.783],[88.96183,25.78433],[88.96181,25.78616],[88.96129,25.78723],[88.95506,25.78822],[88.96009,25.79085],[88.96069,25.79206],[88.95823,25.79295],[88.95678,25.79517],[88.9567,25.79936],[88.95461,25.80256],[88.95231,25.8034],[88.94758,25.79999],[88.94218,25.80222],[88.94507,25.80496],[88.94302,25.80647],[88.94786,25.80845],[88.94834,25.81],[88.95026,25.80973],[88.95202,25.81086],[88.95266,25.80989],[88.95434,25.81022],[88.95599,25.81344],[88.95794,25.81365],[88.96529,25.81341],[88.96767,25.81212],[88.96893,25.81019],[88.9714,25.80995],[88.97191,25.80811],[88.97335,25.80728],[88.97616,25.80729],[88.97742,25.8082],[88.98572,25.8074],[88.9867,25.8081],[88.98663,25.81086],[88.98869,25.81107],[88.99034,25.81418],[88.9929,25.81382],[88.99698,25.81154],[89.00469,25.81234],[89.00508,25.81341],[89.00272,25.81425],[89.00199,25.81568],[89.00669,25.81401],[89.01405,25.81967],[89.01472,25.81705],[89.01869,25.81816],[89.02834,25.81762],[89.03272,25.81857],[89.03804,25.81566],[89.04333,25.81637],[89.04283,25.81258],[89.04526,25.81619],[89.04862,25.81858],[89.04868,25.82158],[89.05049,25.82221],[89.05097,25.82411],[89.05342,25.82541],[89.05571,25.82851],[89.05632,25.8278],[89.05659,25.83158],[89.06026,25.83179],[89.06255,25.83415],[89.07218,25.8337],[89.07804,25.83116],[89.08155,25.83151],[89.0827,25.8306],[89.08217,25.82854],[89.08288,25.82615],[89.08881,25.82844],[89.08908,25.82703],[89.0905,25.8268],[89.09127,25.82905],[89.10098,25.8247],[89.10086,25.82331],[89.10275,25.82179],[89.10476,25.82251],[89.10454,25.82026],[89.10048,25.82129],[89.1002,25.8184],[89.10091,25.8174],[89.10408,25.81934],[89.10625,25.81634],[89.10564,25.81014],[89.10705,25.80621],[89.10605,25.80502],[89.10594,25.79961],[89.10465,25.79647],[89.10524,25.79192],[89.10918,25.78984],[89.10754,25.78751],[89.10697,25.78461],[89.10457,25.78513],[89.10265,25.78248],[89.10194,25.78593],[89.10053,25.78376],[89.09938,25.78446],[89.09909,25.78201],[89.09701,25.78241],[89.09648,25.78027],[89.10347,25.77939],[89.10453,25.77488],[89.0991,25.77392],[89.09977,25.77188],[89.09791,25.77112],[89.09788,25.76732],[89.09675,25.76522],[89.09831,25.76147],[89.10452,25.76259],[89.10736,25.76046],[89.10698,25.75718],[89.10843,25.75625],[89.10882,25.75442],[89.10763,25.75345],[89.10575,25.75515],[89.1054,25.75225],[89.10105,25.75426],[89.09959,25.75151],[89.09517,25.75128],[89.09505,25.74737],[89.09846,25.74629],[89.09671,25.7421],[89.0987,25.73987],[89.10147,25.7397],[89.10175,25.73894],[89.10099,25.73622],[89.09863,25.7356],[89.09581,25.7324],[89.09445,25.73275],[89.09094,25.7314]]]]}}]}